IRIDIUM 57 [-]          
1 25273U 98019B   23259.14258911  .00000559  00000+0  18985-3 0  9990
2 25273  86.3944  53.2565 0002093  91.7129 268.4306 14.34895157333188
IRIDIUM 63 [-]          
1 25286U 98021B   23259.33586308  .00000572  00000+0  19253-3 0  9996
2 25286  86.4047 350.1396 0002145  98.9673 261.1766 14.35405112332299
IRIDIUM 69 [-]          
1 25319U 98026A   23259.02254444  .00000816  00000+0  25537-3 0  9990
2 25319  86.4047   5.4387 0002152  31.3822 328.7504 14.39557508331167
IRIDIUM 71 [-]          
1 25320U 98026B   23258.94566325  .00000704  00000+0  21774-3 0  9991
2 25320  86.4041   0.3137 0003789  66.0206 294.1390 14.39900112331676
IRIDIUM 73 [-]          
1 25344U 98032C   23259.21253739  .00000702  00000+0  17610-3 0  9999
2 25344  86.4430 318.1033 0002196  75.3556 284.7891 14.50018050338077
IRIDIUM 82 [-]          
1 25467U 98051A   23259.39883571  .00016899  00000+0  10098-2 0  9994
2 25467  86.3936  54.8520 0149976 143.6316 217.5224 15.01902318327134
IRIDIUM 2 [-]           
1 25527U 98066A   23258.57538348  .00025570  00000+0  64891-3 0  9992
2 25527  85.5176 116.6522 0004180 333.9632  26.1409 15.39531176365052
